id,name,city,province,description,category,metadata,ratings,budget,latitude,longitude,operating hours,contact information
1,Aguinaldo Shrine,Kawit,Cavite,"""The ancestral home of the first Philippine President Emilio Aguinaldo where Philippine Independence was proclaimed on June 12, 1898. Features historical exhibits and memorabilia from the revolution period.""",Historical Site,"""Educational, Historical, Budget""",4.5,100,14.44527081,120.9068554,9:00 AM - 4:00 PM Daily Except Mondays,046 484 7643
2,Tagaytay Ridge,Tagaytay,Cavite,"""A mountain ridge offering breathtaking panoramic views of Taal Volcano, and Taal Lake.""",Natural Attraction,"""Scenic, Photography, Budget""",4.8,0,14.09731054,120.922487,Open 24 hours,NaN
3,Sky Ranch Tagaytay,Tagaytay,Cavite,"""An amusement park featuring various rides, and attractions with a spectacular view of Taal Volcano. Home to one of the tallest Ferris wheels in the Philippines.""",Leisure,"""Family-oriented, Fun, Thrill""",4.3,900,14.09543379,120.9377015,10:00 AM - 10:00 PM Mon-Fri; 8:00 AM - 10:00 PM Sat-Sun,https://www.facebook.com/skyranchtagaytayofficial/
4,Puzzle Mansion,Tagaytay,Cavite,"""Home to the Guinness World Record holder for the largest collection of jigsaw puzzles. A unique attraction showcasing thousands of completed puzzle artworks in various sizes.""",Museum,"""Unique, Indoor, Family-oriented""",4.2,150,14.09756079,120.9030907,8:00 AM - 5:00 PM Daily,(02) 8861 0019
5,Balite Falls,Amadeo,Cavite,"""A natural cascade with cool refreshing waters where visitors can swim, and picnic surrounded by lush vegetation. Features stone pools, and relaxation areas.""",Natural Attraction,"""Adventure, Nature, Budget""",4.1,100,14.2112162,120.9227518,7:00 AM - 5:00 PM Daily,NaN
6,Sonya's Garden,Tagaytay,Cavite,"""A charming garden restaurant and bed & breakfast, serving organic farm-to-table meals in a romantic, rustic setting with beautiful flower gardens, and greenhouses.""",Restaurant,"""Romantic, Upscale, Nature""",4.6,7000,14.08718294,120.8497877,7:00 AM - 9:00 PM Daily,www.sonyasgarden.com
7,Balay Indang,Indang,Cavite,"""A garden resort offering a serene escape with beautiful cottages nestled among lush gardens. Features farm-to-table dining experiences and nature-based activities.""",Resort,"""Relaxation, Nature, Upscale""",4.5,3500,14.1632472,120.9003353,8:00 AM - 8:00 PM Daily,https://www.facebook.com/p/Balay-Indang-100067963604780/
8,Nurture Wellness Village,Tagaytay,Cavite,"""A wellness retreat offering holistic spa treatments, organic dining, and eco-friendly accommodations. Specializes in Filipino traditional healing therapies and farm tours.""",Resort,"""Wellness, Luxury, Relaxation""",4.7,4500,14.1251808,120.9419548,8:00 AM - 8:00 PM Daily,www.nurture.com.ph
9,Chateau Hestia,Silang,Cavite,"""A garden restaurant serving European cuisine with a farm-to-table concept, and artisanal cheese production. Features rustic European-inspired architecture and gardens.""",Restaurant,"""Culinary, Unique, Upscale""",4.3,900,14.15132906,120.9726938,10:00 AM - 8:00 PM Wed-Mon,NaN
10,Bag of Beans,Tagaytay,Cavite,"""A popular cafe chain in Tagaytay known for its premium coffee handmade pastries and cozy garden setting. Offers breakfast all day with views of Taal Lake.""",Cafe,"""Scenic, Relaxation, Mid-range""",4.5,500,14.09701441,120.9155384,7:00 AM - 9:00 PM Daily,0917 866 7033
11,Mushroom Burger,Tagaytay,Cavite,"""Famous for its unique mushroom-based burgers and affordable meals with a view of Taal Lake.""",Restaurant,"""Culinary, Nostalgic, Budget""",4,250,14.0979248,120.9316928,8:00 AM - 8:00 PM Daily,NaN
12,Tagaytay Highlands,Tagaytay,Cavite,"""An exclusive mountain resort complex with championship golf courses, swimming pools, and various recreational facilities. Features luxury accommodations with mountain views.""",Resort,"""Luxury, Sports, Recreation""",4.8,5000,14.14106452,121.0199447,7:00 AM - 10:00 PM Daily,www.tagaytayhighlands.com
13,Canyon Cove Beach Club,Ternate,Cavite,"""A beachfront resort offering various water activities jet skis, kayaking, and comfortable accommodations with direct access to the beach area.""",Beach,"""Outdoor, Family-oriented, Adventure""",4,4000,14.14106452,121.0199447,8:00 AM - 6:00 PM Daily,02 8703 6158
14,Katungkulan Beach Resort,Ternate,Cavite,"""An affordable beach resort with native cottages and basic amenities for a simple beach getaway. Popular with families looking for budget-friendly options. Also known as Boracay de Cavite.""",Beach,"""Budget, Family-oriented, Outdoor""",3.8,200,14.3121,120.7024,8:00 AM - 6:00 PM Daily,0999 402 4152
15,Kaybiang Tunnel,Ternate,Cavite,"""The longest underground highway tunnel in the Philippines connecting Ternate to Nasugbu with dramatic landscapes on both ends. Popular with motorcycle riders.""",Leisure,"""Adventure, Scenic, """,4.3,0,14.23473256,120.6337254,Open 24 hours,NaN
16,Patungan Beach,Maragondon,Cavite,"""A hidden beach cove offering white sand, clear waters, and a peaceful atmosphere away from crowds. Accessible by boat or through a scenic hiking trail.""",Beach,"""Adventure, Off-the-beaten-path, Budget""",4.2,2500,14.22254549,120.6232138,7:00 AM - 5:00 PM Daily,NaN
17,Twin Lakes,Tagaytay,Cavite,"""A Tuscany-inspired complex with restaurants shops, vineyard, and stunning views of Taal Lake. Features wine tasting experiences and gourmet dining options.""",Leisure,"""Upscale, Scenic, Culinary""",4.4,800,14.06895363,120.8571951,10:00 AM - 9:00 PM Daily,www.twinlakes.ph
18,Taal Vista Hotel,Tagaytay,Cavite,"""A historic hotel with colonial architecture offering premium accommodations and magnificent views of Taal Volcano. Features heritage tours and luxury amenities.""",Hotel,"""Luxury, Historic, Upscale""",4.7,7000,14.09571775,120.9348457,24 hours Daily,www.taalvistahotel.com
19,Antonio's,Tagaytay,Cavite,"""An award-winning fine dining restaurant set in a colonial-style mansion with beautiful gardens. Consistently ranked among the best restaurants in the Philippines.""",Restaurant,"""Luxury, Culinary, Special, Occasion""",4.9,2000,14.10081703,120.8944406,11:30 AM - 9:00 PM Tue-Sun,www.antoniosrestaurant.ph
20,People's Park in the Sky,Tagaytay,Cavite,"""A park situated at one of the highest points in Tagaytay offering 360-degree views of the surrounding areas. Scenic spot good for taking pictures""",Leisure,"""Scenic, Historical, Budget""",4.2,100,14.14185395,121.022041,6:00 AM - 6:00 PM Daily,+63 46 413 0712
21,Picnic Grove,Tagaytay,Cavite,"""A recreational area with picnic tables, ziplines, horseback riding, with scenic views of Taal Volcano""",Leisure,"""Family-oriented, Outdoor, Budget""",4.3,50,14.12489296,120.9977949,7:00 AM - 6:00 PM Daily,NaN
22,Paradizoo,Mendez,Cavite,"""A theme farm and zoo featuring various plants, flowers, and animals with educational activities. Offers interactive farm experiences, and animal encounters.""",Leisure,"""Educational, Family-oriented, Mid-range""",4,500,14.12876182,120.8954473,8:00 AM - 5:00 PM Daily,www.zoomanity.com.ph
23,Qiwellness Living,Tagaytay,Cavite,"""A spa and tea house with oriental design offering relaxation, treatments, and dining with a view. Features hot and cold pools with panoramic lake views.""",Spa,"""Wellness, Luxury, Relaxation""",4.6,3000,14.10133272,120.9468412,10:00 AM - 10:00 PM Daily,www.qiwellnessliving.com
24,Marcia Adams,Alfonso,Cavite,"""A rustic Mediterranean restaurant with stone architecture, and garden dining areas. Features farm-to-table cuisine in a romantic countryside setting.""",Restaurant,"""Romantic, Upscale, Unique""",4.7,1700,14.08987256,120.8916819,11:00 AM - 9:00 PM Tue-Sun,+63 917 801 1456
25,Residence Inn Zoo,Tagaytay,Cavite,"""A mini-zoo, and amusement center featuring various animals, and rides for children. Offers interactive animal shows, and feeding experiences.""",Leisure,"""Family-oriented, Educational, Budget""",3.8,600,14.0877763,120.8945538,8:00 AM - 5:00 PM Daily,+63 46 413 2711
26,Balay Dako,Tagaytay,Cavite,"""A restaurant by renowned Chef Antonio Escalante, serving traditional Filipino dishes in generous portions. Set in a large heritage house with panoramic views of Taal Lake.""",Restaurant,"""Culinary, Filipino, Family-oriented""",4.5,1000,14.10276519,120.9510029,11:00 AM - 10:00 PM Daily,www.antoniorestaurant.ph/balay-dako
27,The Inn at Cliffhouse,Tagaytay,Cavite,"""A boutique hotel perched on a cliff with stylish accommodations and panoramic views. Features modern amenities and access to exclusive dining establishments. Amenities include a cafe and bakery. """,Hotel,"""Luxury, Romantic, Scenic""",4.6,6500,14.10238693,120.9498261,24 hours Daily,www.cliffsidetagaytay.com
28,Hotel Kimberly,Tagaytay,Cavite,"""A family-friendly hotel with spacious rooms, swimming pool, and a small farm where kids can interact with animals. Offers educational farm tours and activities.""",Hotel,"""Family-oriented, Mid-range, Educational""",4.2,6000,14.12235549,120.9344179,24 hours Daily,www.hotelkimberly.com
29,Bulalo Point,Tagaytay,Cavite,"""A local restaurant famous for its bulalo (beef marrow soup) a specialty of the Tagaytay region. Offers rustic dining with countryside views.""",Restaurant,"""Culinary, Filipino, Budget, Bulalohan, Bulalo""",4.1,400,14.09929469,120.9235723,10:00 AM - 10:00 PM Daily,+63 46 413 2874
30,Leslie's Restaurant,Tagaytay,Cavite,"""A long-standing restaurant known for its bulalo and Filipino dishes with a view of Taal Volcano. A Tagaytay institution frequented by both locals and tourists.""",Restaurant,"""Culinary, Filipino, Mid-range""",4,600,14.10220566,120.9519971,7:00 AM - 11:00 PM Daily,+63 46 413 1065
31,Mahogany Market & Beef Bulalohan,Tagaytay,Cavite,"""A local market where you can find fresh produce and affordable bulalo restaurants frequented by locals. Known for authentic no-frills dining experiences. Best place to eat Bulalo in Tagaytay.""",Restaurant,"""Culinary, Local, Budget, Bulalohan, Bulalo""",4,250,14.10420675,120.9316387,4:00 AM - 9:00 PM Daily,NaN
32,Our Lady of Lourdes Parish,Tagaytay,Cavite,"""A historic church in Tagaytay with beautiful architecture, and a serene atmosphere. Features stained glass windows and religious artifacts.""",Religious Site,"""Spiritual, Historical, Budget""",4.4,0,14.11248041,120.9591565,5:00 AM - 8:00 PM Daily,+63 46 413 2387
33,St. Gregory the Great Parish,Indang,Cavite,"""A church in Indang Cavite. Known for its beautiful interiors and regular masses attended by both locals and visitors.""",Religious Site,"""Spiritual, Scenic, Budget""",4.3,0,14.19706769,120.8785384,5:00 AM - 7:00 PM Daily,+63 46 415 0087
34,Breakfast at Antonio's,Tagaytay,Cavite,"""A casual dining spot offering all-day breakfast, and comfort food in a relaxed garden setting. Sister restaurant of the fine-dining Antonio's. Known for Beef Tapa, Omelette, and Eggs Benedict""",Restaurant,"""Culinary, Mid-range, Relaxation""",4.5,800,14.08836237,120.8985328,7:00 AM - 4:00 PM Daily,www.antoniosrestaurant.ph
35,Pamana Restaurant,Tagaytay,Cavite,"""A restaurant specializing in heritage Filipino recipes served in a home-style setting. Features family heirloom recipes and nostalgic interiors.""",Restaurant,"""Culinary, Filipino, Mid-range""",4.4,500,14.11218697,120.9594986,10:00 AM - 9:00 PM Daily,+63 46 697 0273
36,Fire Lake Grill,Tagaytay,Cavite,"""A steakhouse with an open kitchen and a view of Taal Volcano. Specializes in grilled meats, and fresh seafood with premium ingredients.""",Restaurant,"""Culinary, Upscale, Western""",4.3,2000,14.10246307,120.9498236,11:00 AM - 10:00 PM Daily,+63 46 483 2050
37,Gourmet Farms,Silang,Cavite,"""A coffee farm and restaurant specializing in organic products with farm tours available. Features sustainable farming practices and educational programs.""",Farm,"""Educational, Culinary, Sustainable""",4.3,400,14.14725229,120.9568436,7:00 AM - 5:00 PM Daily,www.gourmetfarms.com.ph
38,Crosswinds Resort,Tagaytay,Cavite,"""A Swiss-themed resort with luxury accommodations, and pine-lined landscapes. Features European-inspired architecture and mountain climate.""",Hotel,"""Luxury, Unique, Scenic""",4.5,4000,14.14127036,121.0076092,24 hours Daily,www.crosswindsresort.com
39,Lee Boutique Hotel,Tagaytay,Cavite,"""A modern boutique hotel in Tagaytay offering comfortable rooms, and personalized service. Features contemporary design and convenient location.""",Hotel,"""Mid-range, Modern, Convenient""",4.2,3000,14.12105017,120.9686791,24 hours Daily,www.leeboutiquehotel.com
40,Tagaytay Haven Hotel,Tagaytay,Cavite,"""An affordable hotel with clean rooms and basic amenities ideal for budget travelers. Multiple branches around Tagaytay area.""",Hotel,"""Budget, Practical, Family-oriented""",3.9,25000,14.1418712,120.9905387,24 hours Daily,0956 672 3514
41,The Lake Hotel Tagaytay,Tagaytay,Cavite,"""A hotel offering comfortable accommodations with lake views and family-friendly facilities. Features an outdoor pool and garden areas.""",Hotel,"""Mid-range, Family-oriented, Scenic""",4.1,4000,14.10197576,120.9484582,24 hours Daily,lakehoteltagaytay.com
42,Moon Garden Tagaytay,Tagaytay,Cavite,"""A garden resort with unique accommodations and a peaceful ambiance. Features themed cottages and extensive gardens with night lighting.""",Hotel,"""Unique, Mid-range, Relaxation""",4.4,3500,14.12709649,120.9680035,24 hours Daily,0917 702 5456
43,Escala Tagaytay,Tagaytay,Cavite,"""A modern hotel with stylish interiors and a rooftop deck offering panoramic views. Features contemporary amenities and sleek design.""",Hotel,"""Modern, Mid-range, Scenic""",4.3,10500,14.094567,120.9411118,24 hours Daily,www.escalatagaytay.com
44,Hanan Hotel Tagaytay,Tagaytay,Cavite,"""A budget-friendly hotel with comfortable rooms and basic amenities. Located near major attractions and dining establishments in Tagaytay""",Hotel,"""Budget, Practical, Convenient""",3.8,2600,14.11944368,120.9460022,24 hours Daily,0917 568 8861
45,D'Banquet Bakeshop and Restaurant,Tagaytay,Cavite,"""A bakery, and restaurant known for its affordable meals, and freshly baked bread. Popular with families looking for value dining.""",Restaurant,"""Culinary, Budget, Family-oriented""",3.9,300,14.12594108,120.9590158,7:00 AM - 9:00 PM Daily,+63 46 413 4568
46,Diner's Bulalo,Tagaytay,Cavite,"""A simple eatery specializing in bulalo, and other Filipino dishes at reasonable prices. Popular with locals for authentic flavors.""",Restaurant,"""Culinary, Filipino, Budget""",3.8,300,14.10667772,120.95192,10:00 AM - 10:00 PM Daily,0905 560 1946
47,Starbucks Downhill Tagaytay,Tagaytay,Cavite,"""A coffee shop chain with a stunning view of Taal Volcano one of the most scenic Starbucks in the country. Features outdoor seating areas.""",Cafe,"""Culinary, Chain, Scenic""",4.4,300,14.12670596,120.9709783,6:00 AM - 12:00 AM Daily,www.starbucks.ph
48,The Pink Sisters Chapel,Tagaytay,Cavite,"""A contemplative monastery where nuns in pink habits offer prayers for visitors' petitions. Features beautiful architecture and peaceful gardens.""",Religious Site,"""Spiritual, Peaceful, Unique""",4.5,0,14.1270965,120.9625367,6:00 AM - 6:00 PM Daily,046 413 1211
49,Imus Cathedral,Imus,Cavite,"""A historic church that played a significant role during the Philippine Revolution against Spain. Features religious artifacts and colonial architecture.""",Religious Site,"""Historical, Spiritual, Budget""",4.3,0,14.42964341,120.9362938,5:00 AM - 8:00 PM Daily,046 471 2686
50,Memory Lane,Tagaytay,Cavite,"""A nostalgic cafe with memorabilia decor and comfort food offerings. Features vintage items and Filipino snacks and drinks. Their signature dish is Sinigang na Lechon""",Cafe,"""Nostalgic, Mid-range, Unique""",3.9,300,14.10982644,120.948815,9:00 AM - 9:00 PM Daily,0917 858 1950
51,Rowena's Pasalubong,Tagaytay,Cavite,"""A popular bakeshop famous for its tarts and pastries a perfect food souvenir from Tagaytay. Known for fruit tarts and buko pie.""",Restaurant,"""Culinary, Pasalubong, Budget""",4.4,300,14.11446244,120.9615918,7:00 AM - 8:00 PM Daily,046 483 0717
52,Malen's Restaurant,Kawit,Cavite,"""A local restaurant serving traditional Caviteño dishes like adobong dilaw and crispy pata. Known for authentic flavors and generous portions.""",Restaurant,"""Culinary, Filipino, Local""",4.2,400,14.43058832,120.8836719,10:00 AM - 9:00 PM Daily,046 438 1634
53,Caylabne Bay Resort,Ternate,Cavite,"""A secluded resort with a private beach water activities and comfortable accommodations. Features mountain and sea views in an exclusive setting.""",Resort,"""Luxury, Secluded, Relaxation""",4.3,4500,14.27346234,120.6493703,24 hours Daily,www.caylabne.com.ph
54,Lime and Basil,Alfonso,Cavite,"""An organic garden restaurant specializing in Thai and Filipino fusion dishes. Features garden dining in a countryside setting.""",Restaurant,"""Culinary, Fusion, Mid-range""",4.5,800,14.09266325,120.8921481,11:00 AM - 8:00 PM Wed-Sun,limeandbasil.com.ph
55,Morielli's Inn,Tagaytay,Cavite,"""A small family-run inn offering affordable accommodations and personal service. Known for its homey atmosphere, and helpful staff. The restaurant is popular for mexican tacos.""",Hotel,"""Budget, Family-run, Convenient""",4,1800,14.12605635,120.9835188,24 hours Daily,0919 089 6627
56,Tagaytay Country Hotel,Tagaytay,Cavite,"""A mid-range hotel with Philippine-inspired architecture and comfortable facilities. Features traditional Filipino design elements.""",Hotel,"""Mid-range, Cultural, Convenient""",4,3000,14.11945631,120.9632471,24 hours Daily,046 413 3310
57,View Park Hotel,Tagaytay,Cavite,"""A hotel offering rooms with balconies overlooking Taal Volcano and Lake. Amenities include an infinity pool restaurant conference facilities free WiFi and complimentary breakfast.""",Hotel,"""Mid-range, Scenic, Family-oriented""",4.2,3000,14.12613166,120.9968905,24 hours Daily,viewparkhotel.com
58,The Oriental Luxury Suites,Tagaytay,Cavite,"""A high-end hotel offering spacious suites with modern amenities and excellent service. Features include jacuzzi tubs, smart TVs, fine dining restaurant, spa, fitness center, and infinity pool with Taal views.""",Hotel,"""Luxury, Modern, Upscale""",4.7,6000,14.08623983,120.8863969,24 hours Daily,tagaytay.theorientalhotels.com
59,Cafe Voi La Crosswinds,Tagaytay,Cavite,"""A restaurant at Nurture Wellness Village offering healthy, organic meals with Mediterranean influences. Specialty dishes include farm-fresh salads, herb-crusted fish, and their signature wellness juices.""",Restaurant,"""Culinary, Healthy, Organic""",4.4,600,14.13791792,121.0138771,7:00 AM - 9:00 PM Daily,0905 331 4757
60,Domicillo Design Hotel,Tagaytay,Cavite,"""A boutique design hotel with uniquely styled rooms and a rooftop restaurant. Amenities include designer furnishings, rain showers, smart TVs, mini-bars, rooftop dining with panoramic views and architectural touches by local artists.""",Hotel,"""Boutique, Design, Mid-range""",4.6,5000,14.13778382,120.9565725,24 hours Daily,NaN
61,One Tagaytay Place Hotel,Tagaytay,Cavite,"""A hotel with modern amenities including a spa, indoor pool, and fitness center. Features include fully equipped function rooms, cinema room, game room, multiple dining options, sauna rainfall, showers and complimentary breakfast.""",Hotel,"""Mid-range, Modern, Business""",4.2,3000,14.12426163,120.9909033,24 hours Daily,www.onetagaytayplace.com
62,Days Hotel Tagaytay,Tagaytay,Cavite,"""A reliable hotel chain property with comfortable rooms and good service. Amenities include swimming pool, fitness center, restaurant, free WiFi, complimentary breakfast, meeting facilities and business center.""",Hotel,"""Mid-range, Business, Reliable""",4,4000,14.11377871,120.9613078,24 hours Daily,www.wyndhamhotels.com/days-inn/tagaytay-city-philippines
63,RSM Lutong Bahay,Tagaytay,Cavite,"""A casual eatery serving affordable home-style Filipino cuisine. Known for their Lechon Kawali and Bulalong Tagalog and all-day Filipino breakfast selections including tapsilog and longsilog. """,Restaurant,"""Culinary, Filipino, Budget""",3.8,250,14.13116405,120.9828585,7:00 AM - 8:00 PM Daily,0943 131 5543
64,Samira by Chele Gonzalez,Tagaytay,Cavite,"""A fine dining restaurant by renowned Chef Chele Gonzalez serving innovative cuisine combining Spanish and Filipino flavors. Signature dishes include cochinillo inspired by Cebu lechon and modern interpretations of traditional Filipino desserts.""",Restaurant,"""Culinary, Luxury, Fine-dining""",4.8,2500,14.13810016,120.9737789,6:00 PM - 10:00 PM Wed-Sun,0998 955 3630
65,Aozora Japanese Restaurant,Tagaytay,Cavite,"""An authentic Japanese restaurant offering sushi, sashimi, and other Japanese favorites with a view of Taal. Known for their fresh sashimi platters, dragon maki rolls, and wagyu teppanyaki.""",Restaurant,"""Culinary, Japanese, Upscale""",4.4,600,14.11313146,120.9593573,11:00 AM - 9:00 PM Daily,NaN
66,Asiong's of Cavite ,Silang,Cavite,"""A restaurant specializing in traditional Caviteño cuisine like pancit pusit (squid noodles). Other signature dishes include bacalao a la Caviteña, adobong dilaw and their heritage-recipe bibingka.'",Restaurant,"""Culinary, Filipino, Local""",4.4,400,14.14795867,120.9753943,10:00 AM - 8:00 PM Daily,0926 713 9400
67,St. Mary Magdalene Church,Kawit,Cavite,"""A historic church in Kawit built during the Spanish colonial period with beautiful architecture. Features religious relics, colonial design, intricate altar work, stained glass windows and important historical connections to the revolution.""",Religious Site,"""Historical, Spiritual, Budget""",4.3,0,14.44514125,120.9044592,5:00 AM - 7:00 PM Daily,046 484 7485
68,Tagaytay Econo Inn,Tagaytay,Cavite,"""A budget accommodation offering clean rooms and basic amenities at affordable rates. Amenities include air conditioning hot and cold shower cable TV free WiFi complimentary breakfast and secure parking.""",Hotel,"""Budget, Practical, No-frills""",3.7,1800,14.12609397,120.9810442,24 hours Daily,046 483 4284
69,Ternate Beach Resort,Ternate,Cavite,"""A gray sand beach with calm waters ideal for swimming, and water activities. Features basic amenities rental, cottages, volleyball courts, fresh seafood vendors, and boat rental for island hopping.""",Beach,"""Outdoor, Budget, Family-oriented""",3.8,2500,14.28750905,120.7066095,6:00 AM - 6:00 PM Daily,0921 656 5569
70,Malibiclibic Falls,Bailen,Cavite,"""A small waterfall with clear waters and natural pools for swimming. Features picnic areas, trekking trails, lush vegetation, and birdwatching opportunities.""",Natural Attraction,"""Adventure, Nature, Budget, Tourist, Attraction""",3.8,75,14.21844839,120.7873818,7:00 AM - 5:00 PM Daily,+63 915 237 6549
71,Our Lady of the Assumption Parish Church,Maragondon,Cavite,"""A well-preserved Spanish colonial church built in the 1600s featuring stone architecture, and religious artifacts. Home to historical events related to the Philippine Revolution.""",Religious Site,"""Historical, Spiritual, Budget""",4.1,0,14.27819307,120.7401987,5:00 AM - 7:00 PM Daily,+63 46 412 3478
72,Bonifacio Trial House,Maragondon,Cavite,"""A historical house-turned-museum where revolutionary leader Andres Bonifacio was tried. Features historical exhibits, period furnishings, and educational displays about this important historical event.""",Museum,"""Historical, Educational, Budget""",4,50,14.27607957,120.7373691,8:00 AM - 5:00 PM Tue-Sun,+63 46 412 3490
73,Vermosa Sports Hub,Imus,Cavite,"""A world-class sports facility featuring Olympic-size swimming pool, track and field, football field, and other athletic facilities. Offers training programs for various sports.""",Leisure,"""Active, Recreation, Mid-range""",4.5,300,14.38101273,120.9609473,6:00 AM - 9:00 PM Daily,www.vermosa.ph
74,Bacoor Ecopark,Bacoor,Cavite,"""An urban park featuring walking paths playground areas fitness stations and green spaces. Popular for jogging picnics and family recreational activities.""",Leisure,"""Outdoor, Family-oriented, Free""",3.8,0,14.39890696,120.9730998,5:00 AM - 9:00 PM Daily,NaN
75,Splendido Taal Golf Club,Laurel,Cavite,"""A championship golf course offering challenging play, and scenic views. Features 18-hole course, clubhouse, pro shop, restaurant and practice facilities.""",Leisure,"""Sports, Luxury, Recreation""",4.5,4000,14.06639247,120.8783856,6:00 AM - 6:00 PM Daily,www.splendidotaalgolfclub.com
76,Imus Heritage Park,Imus,Cavite,"""A public park commemorating the Battle of Imus during the Philippine Revolution. Features historical monuments, educational panels, landscaped gardens,and recreation areas.""",Leisure,"""Historical, Educational, Free""",3.9,0,14.40371993,120.9157848,6:00 AM - 9:00 PM Daily,NaN
77,Yoki's Farm,Mendez,Cavite,"""An agricultural tourism destination featuring hydroponic farming, animal sanctuary ,and mini-museum. Offers educational tours vegetable picking and souvenir shopping.""",Farm,"""Educational, Family-oriented, Mid-range""",4.2,400,14.12458335,120.8800061,8:00 AM - 5:00 PM Daily,0999 994 9603
78,Mount Marami,Maragondon,Cavite,"""A hiking destination featuring unique rock formations, and panoramic views of Cavite, and surrounding provinces. Offers moderate to challenging trails for outdoor enthusiasts.""",Mountain,"""Adventure, Hiking, Outdoor""",4.4,500,14.20671801,120.6885344,5:00 AM - 3:00 PM Daily,NaN
79,Mount Buntis,Maragondon,Cavite,"""A historical mountain where Philippine hero Andres Bonifacio was executed. Features moderate hiking trails, historical markers, and panoramic views of Cavite province.""",Mountain,"""Historical, Hiking, Adventure""",4.2,500,14.24598845,120.7318231,5:00 AM - 3:00 PM Daily,NaN
80,Luntiang Republika Eco Farm,Alfonso,Cavite,"""An organic farm and eco-tourism destination offering farm tours, culinary experiences, and educational workshops about sustainable farming practices, and permaculture.""",Farm,"""Educational, Sustainable, Nature""",4.3,0,14.16908497,120.8421062,8:00 AM - 5:00 PM Fri-Sun,0917 327 0324
81,Cavite El Fraile Island,Cavite City,Cavite,"""A historic island fortress that served as a Spanish naval base. Features preserved ruins, tunnels, and fortifications with views of Manila Bay and educational tours about naval history.""",Historical Site,"""Historical, Educational, Adventure""",4.1,200,14.30522937,120.6303147,8:00 AM - 4:00 PM Sat-Sun,NaN
82,Hidden Charm Cafe,Silang,Cavite,"""A cozy hidden gem cafe in Silang garden cafe setting with a greenhouse an abundance of lush plants.""",Cafe,"""Relaxing, Nature, Instagram-worthy""",4.3,400,14.15610329,120.9574505,11:00 AM - 9:00 PM Daily,0917 127 8537
83,Hotel Georgina,Tagaytay,Cavite,"""A hotel that offers complimentary WiFi Connection, and flatscreen TVs. Amenities inlcude free breakfast, and outdoor pool. Very accessible and close to Sky Ranch and People's Park""",Hotel,"""Budget""",4,2000,14.14109185,120.9526491,24 hours daily,0917 875 4063
84,Museo Orlina,Tagaytay,Cavite,"""A contemporary art museum showcasing the glass sculptures of renowned Filipino artist Ramon Orlina. Features rotating exhibitions beautiful architecture garden installations and a roof deck with panoramic views of Taal Lake.""",Museum,"""Cultural, Artistic, Unique""",4.5,150,14.1254129,120.9804053,10:00 AM - 6:00 PM Tue-Sun,www.museo-orlina.org
85,Museo De La Salle,Dasmariñas,Cavite,"""A museum within De La Salle University-Dasmariñas campus showcasing Philippine heritage collections. Features Filipino cultural artifacts colonial furniture religious items and historical exhibits.""",Museum,"""Educational, Historical, Cultural""",4.3,100,14.32107678,120.9612312,9:00 AM - 4:00 PM Tue-Sat,dlsud.edu.ph
86,Teofely Gardens Wedding & Events Venue,Silang,Cavite,"""A garden venue featuring various themed gardens, landscaped areas, and plant collections. Popular for photoshoots, events, and garden tours with educational components about horticulture.""",Leisure,"""Scenic, Photography, Relaxation""",4.2,250,14.17841146,121.0073917,8:00 AM - 5:00 PM Daily,0917 890 2935
87,Imus Heritage District,Imus,Cavite,"""A historical district featuring preserved colonial structures, landmarks, and sites significant to Cavite's history. Includes the Imus Cathedral revolutionary sites and heritage houses.""",Historical Site,"""Historical, Educational, Cultural""",4.2,0,14.40369915,120.915656,Open 24 hours,N/A
88,La VeryOl's Mountain View Garden Restaurant,Tagaytay,Cavite,"""A garden restaurant serving Filipino and international cuisine with a scenic view of Tagaytay. Features outdoor garden dining function areas and farm-to-table concept with herbs grown on-site.""",Restaurant,"""Culinary, Scenic, Family-oriented""",4.3,600,14.10536,120.93254,10:00 AM - 9:00 PM Daily,"""0915 790 0170, laveryols@gmail.com"""
89,Sanctuary Escapes Imus Cavite Staycation,Imus,Cavite,"""Stylish central loft with recliner sofa bathtub and smart TV""",Hotel,"""Loft, Bathtub, SmartTV""",4.95,2200,14.40526514,120.9558778,2:00PM - 11:00 AM,https://www.airbnb.com/rooms/1173567388779742240
90,Ruiz Vacation House ,Imus,Cavite,"""The air-conditioned holiday home provides a flat-screen TV along with fully equipped kitchen with a fridge. It comes with private parking full-day security and Free WiFi.""",Hotel,"""""",4.75,2100,14.43861156,120.9136049,2:00 PM - 11:00AM,https://www.airbnb.com/rooms/1010595843563127303?
91,The Locker Room Cafe,Imus,Cavite,"""Fusion café with modern decor and craft coffee""",Cafe,"""Fusion, Modern, Coffee	""",5,200,14.38093973,120.9608754,8:00 AM - 8:00PM Daily,0908 865 6185
92,Kubli Coffee House,Imus,Cavite,"""Hidden gem café with vintage vibe and handcrafted brews""",Cafe,"""Vintage, """,4.8,150,14.43163807,120.9385473,4:00PM - 10:00PM Daily,0967 460 2170
93,The Payaba Cafe + Flower Boutique,Imus ,Cavite,"""Flower boutique café offering coffee and pottery classes""",Cafe,"""Flower, Art, Pottery	""",4.7,200,14.42881944,120.9385199,9:00 AM - 5:00PM Daily,NaN
94,Sounds Like Coffee,Imus,Cavite,"""Pet friendly café with WiFi. Their signature drink is sea salt latte.""",Cafe,"""""",4.7,200,14.42912506,120.9389342,2:00 PM - 10:00PM Daily,NaN
95,Classic Homebrew Cafe,Imus,Cavite,"""Homey café serving brewed coffee and quiet seating""",Cafe,"""Cozy""",4.4,200,14.42671448,120.9360303,2:00PM - 12:30AM Daily,NaN
96,Kapesalayaw,Imus,Cavite,"""Beach house themed cafe with deck views""",Cafe,"""Beach-themed""",4.7,150,14.40676609,120.9389038,10:00AM - 12:00AM Daily,0960 893 1203
97,Paw & Bean Cafe,Imus ,Cavite,"""Pet friendly café with al fresco seating""",Cafe,"""Garden, Pet-Friendly""",4.7,200,14.43954935,120.9343069,3:00PM - 10:00PM Daily,https://www.facebook.com/profile.php?id=100085286887746
98,Kalyehon Cafe,Imus,Cavite,"""Art space turned café with monthly exhibits""",Cafe,"""Art, Gallery, Café""",4.6,200,14.44301262,120.9241075,3:00PM - 9:30PM Daily,0917 555 6093
99,Cloudbrew Cafe,Imus,Cavite,"""Café serving coffee and savory dishes near Daang Hari""",Cafe,"""""",4.5,150,14.38835625,120.9699402,12:00PM - 9:00PM Daily,https://linkpop.com/cloudbrewph-slug-cloudbrewph
100,Casa de Celo,Imus ,Cavite,"""Neighborhood spot serving Filipino dishes and brews, Mostly known for their sizzling tofu and crispy pata""",Restaurant,"""Filipino, Cuisine, Local""",4.7,200,14.42816546,120.9374276,10:00AM - 2:00AM Daily,https://www.facebook.com/casadecelo
101,Mang Kok’s,Imus,Cavite,"""Known for its pizza-style baked macaroni and family-style meals.""",Restaurant,"""Western-Filipino""",4.5,200,14.40204713,120.9590769,"""12:00 PM - 12:00 AM Sat Sun, 3:00 PM - 12:00AM Tues-Fri""",0960 204 2813
102,Hybrid Project,Imus,Cavite,"""Modern bar restaurant with international dishes. Known for their Bulalong Puti""",Restaurant,"""Chill, International, Fusion""",3.7,300,14.42878307,120.9370139,10:00AM - 12:00AM Daily,https://www.facebook.com/hybridprojectcavite
103,Villa Alberto Resort,Bacoor,Cavite,"""Premier public and private resort with pools and cottages and event spaces""",Resort,"""Pool, Cottage, Outing""",4.5,200,14.44968982,120.9692713,8:00 AM - 10:00PM,https://www.facebook.com/varesortbacoor/
104,Villa Camagong Resort,Bacoor,Cavite,"""Private resort ideal for gatherings with spacious rooms and pool""",Resort,"""Private, Pool, Events""",4.6,6500,14.42631785,120.9652836,8:00 AM - 5:00 PM,https://www.facebook.com/villacamagong/
105,Garden Vylah Resort,Bacoor,Cavite,"""Garden-inspired private resort with large pool and event area.""",Resort,"""Garden, Pool, Events""",4.6,5500,14.40465725,120.965782,Open 24 hours daily,0917 170 9575 and https://www.facebook.com/GardenVylah/
106,Cool Martin Resort,Bacoor,Cavite,"""Cozy resort with swimming pool and family accommodations.""",Resort,"""Pool, Family-friendly""",4.3,2000,14.44549104,120.9578894,Open 24 hours daily,0917 582 8790 or coolmartinfamilyhotel.com
107,One Serenata Hotel,Bacoor,Cavite,"""Modern hotel with comfortable rooms and amenities""",Hotel,"""Modern, Comfortable""",4,2000,14.44944044,120.9327921,Open 24 hours daily,046 434 5576
108,Kainan Sa Balsa,Bacoor,Cavite,"""Modern Filipino cuisine with creative twists. Dishes include Inihaw na Panga ng Tuna and Ensaladang Talong""",Restaurant,"""Filpino, Traditional, Fusion""",4.3,300,14.4576812,120.9323763,10:00 AM - 10:00 PM Daily,046 434 6498
109,Manam,Bacoor,Cavite,"""Modern Filipino cuisine with creative twists. Their most poular dishes are Crispy Pancit Palabok, Fresh Lumpiang Ubod,  and Crispy Pata Tim""",Restaurant,"""Modern, Filipino, Fusion""",4.9,400,14.44540826,120.9515002,10:00 AM - 10:00 PM Daily,momentfood.com
110,Tirona's Grill,Bacoor,Cavite,"""Asian fusion restaurant with seafood specialties.""",Restaurant,"""Asian, Fusion, Seafood""",4.1,300,14.45002146,120.9344978,9:00AM - 3:00AM Daily,0929 658 3985
111,Wanderlust Cafe,Trece Martires,Cavite,"""A newly opened garage café offering cozy and inviting atmosphere.""",Cafe,"""Hidden gem, Chill, Relaxing""",4.5,300,14.28396886,120.8541662,8:00AM - 12:00AM,0969 496 5787
112,Alitaptap Art Cafe,Amadeo,Cavite,"""Set within an artists' community also offering alfresco dining amidst artworks and occasional live music.""",Cafe,"""Live music, art gallery, hidden gem""",4.2,300,14.20621111,120.9216839,10:00AM - 9:00PM Daily except Monday and Tuesday,0955 307 8472 and https://www.facebook.com/alitaptapartcafe
113,Gallery & Cafe,Silang,Cavite,"""A serene spot where coffee, art, and nature converge, offering a tranquil environment""",Cafe,"""Art gallery, Café, Nature-inspired""",4.5,200,14.18453972,120.9623578,NaN,NaN
114,Dreamlands Arts & Crafts Cafe,Tagaytay,Cavite,"""A bohemian-themed cozy café with handcrafted décor""",Cafe,"""Cozy, Art, Café""",4.3,200,14.11752233,120.9642537,9:00AM - 9:00 PM Daily,NaN
115,Siglo Farm Cafe,Indang,Cavite,"""A serene garden cafe nestled within the Paraiso Farm Resort. Offering an alfresco dining experience amidst lush greenery. Signature dishes include Adobong Antigo, Salmon Teriyaki, and a variety of freshly baked pastries. """,Cafe,"""Hidden gem, Rustic, Serene""",4.6,400,14.16410474,120.8904842,10:00AM - 10:00PM Daily,NaN
116,Cafe Carolina,Amadeo,Cavite,"""A cozy and inviting café that offers warm ambiance perfect for relaxation and reading.""",Cafe,"""Hidden gem""",4.6,300,14.13558562,120.932646,8:00 AM - 10:00PM Daily,0977 127 6208 and https://www.facebook.com/cafecarolinaph/
117,Bueno Express Cafe,Bacoor,Cavite,"""A pet-friendly café offering a cozy ambiance and a variety of coffee blends.""",Cafe,"""Pet-friendly, Chill, Instagrammable""",4.8,300,14.40729061,120.9730395,10:00AM - 10:00PM Daily,https://www.instagram.com/buenoexpressocafe
118,Coffee Gus To,Dasmarinas,Cavite,"""A modern café offering a wide selection of coffee, frappes, milk tea, and hearty meals in a peaceful ambiance.""",Cafe,"""Hidden gem, Coworking, Cozy""",4.4,200,14.37435713,120.9205599,11:00AM - 11:00PM,0956 280 7813 and https://www.facebook.com/coffeegustoph
119,Tinatangi Cafe ,Dasmarinas,Cavite,"""A charming café known for its cozy ambiance and selection of handcrafted beverages and pastries.""",Cafe,"""Hidden gem, Instagrammable, Cozy""",4.5,200,14.34973974,120.9738111,7:00AM - 12:00AM,NaN
120,So It Goes Cafe ,Dasmarinas,Cavite,"""A vintage-retro themed coffee shop offering a unique atmosphere and a variety of coffee blends.""",Cafe,"""Vintage, Unique, Cozy""",4.8,200,14.32722178,120.9417949,10:00AM - 12:00AM Daily,0918 553 8111
121,Diocesan Shrine of San Agustin,Tanza,Cavite,"""A historic church established in 1780 known for its Earthquake Baroque architecture and cultural significance.""",Historical Site,"""Heritage, Religious""",4.8,0,14.40158988,120.8570093,5:00AM - 11:30PM,NaN
122,Hardin ng Postema ,Tanza,Cavite,"""A family-friendly resort featuring animal and dinosaur animatronics ideal for children and leisure walks.""",Resort,"""Family-friendly, Recreational""",4.5,150,14.37530723,120.8249102,NaN,NaN
123,Villa Excellance ,Tanza,Cavite,"""A beach resort offering wave pools and various water activities perfect for family outings.""",Resort,"""Family-friendly, Recreational""",4,3000,14.38262754,120.8222651,"Check in time 2:00PM, Check out 12:00PM",0916 523 2802
124,Hotel and Oasis Resort,Tanza,Cavite,"""A premier hotel, and resort offering luxurious accommodations, and event spaces and, a beachfront view.  Suites include sitting areas. A 1-bedroom suite offers a living room, and a 4-bedroom suite provides a kitchenette.""",Resort,"""Luxury, Events, Beachfront""",4.2,3500,14.36024015,120.7917793,"""Check in time 2:00PM, Check out 12:00PM""",tanzaoasis.com
125,Aqua Mira ,Tanza,Cavite,"""A modern resort featuring a large pool, garden, and comfortable rooms ideal for family getaways.""",Resort,"""	Family-Friendy, Relaxing, Modern""",4.1,3000,14.31172728,120.8234356,"""Check in time 2:00PM, Check out 12:00PM""",0956 641 7009
126,Sibsib Baybayin ,Tanza,Cavite,"""A beachfront resort offering simple accommodations and a peaceful environment for relaxation.""",Resort,"""Budget-friendly, Beachfront""",4.6,2000,14.34900575,120.7839096,"""Check in time 2:00PM, Check out 12:00PM""",
127,Shang Garden,Tanza,Cavite,"""A well-regarded Chinese restaurant known for authentic dishes and a cozy ambiance.""",Restaurant,"""Chinese, Authentic, Family-Friendly""",3.9,700,14.36022414,120.7916374,6:00 AM - 11:00PM Daily,NaN
128,Calle Real,Tanza,Cavite,"""A local favorite offering Filipino cuisine comfort food in a homey setting.""",Restaurant,"""Traditional, Homestyle""",4.2,400,14.40010204,120.8606087,10:00 AM - 9:00 PM Daily,046 418 1574
129,Cafe BLK & BROWN,Tanza,Cavite,"""A modern café offering a variety of coffee blends and desserts in a minimalist setting.""",Cafe,"""Minimalist, Modern, Desserts, """,4.7,200,14.35284452,120.7965083,10:00 AM - 10:00 PM Daily,https://cafeblkandbrwn.my.canva.site/home
130,NCY Cafe ,Tanza,Cavite,"""Offers a wide range of coffee and food options in a cozy setting, perfect for casual meetup""",Cafe,"""Casual, Cozy""",4.9,200,14.39572485,120.8597283,1:00PM - 10:00PM Daily,0962 770 5023
131,Trece Cafe  & Kitchen,Trece Martires,Cavite,"""A homey café located in San Agustin offering a diverse menu of coffee, pastries, and hearty meals. The warm interiors and friendly staff create a welcoming environment for casual meetups and solo diners alike.""",Cafe,"""Cozy, Minimalist""",4.8,200,14.28619869,120.8602965,10:00AM - 12:00AM Daily,0962 840 0196
132,Kura Cafe ,Trece Martires,Cavite,"""Offers a cozy and relaxing atmosphere. Known for its strong yet smooth Barista Blend coffee,assorted pastries, and affordable meals. The cafe is air-conditioned, pet-friendly and provides free Wi-Fi making it ideal for remote work.""",Cafe,"""Cozy, Pet-friendly, Coworking""",4,200,14.28481953,120.8630355,10:00AM - 11:00PM,https://utak.io/store/kuracafetrece
133,Kanlungan Cafe ,Trece Martires,Cavite,"""A hidden gem cafe that boasts a rustic charm with its wooden interiors and garden setting. It offers a selection of handcrafted beverages and light snacks.""",Cafe,"""Relaxing, Hidden, Gem""",4.7,300,14.2829042,120.8502109,11:00 AM - 9:00PM Daily,0968 415 0503
134,Mayang Falls,Trece Martires,Cavite,"""Also known as Sta. Rosa Falls. The only known waterfalls in Trece Martires. It offers a natural retreat amidst lush greenery. Ideal for nature enthusiasts and those seeking a serene escape.""",Natural Attraction,"""Waterfall, Nature, Ecotourism""",4.2,0,14.24183992,120.8920825,Open 24 hours daily,NaN
135,Lola's Plate and Pours,Trece Martires,Cavite,"""A cozy and pet-friendly restaurant with airconditioned and al fresco options. Signature dishes include Crispy Pork Kare Kare, and Baked Scallops with cheese and garlic""",Restaurant,"""Pet-friendly, Cozy, Filipino cuisine""",4.7,400,14.28938378,120.8910591,10:00AM - 12:00AM Daily,0927 142 0031
136,Chef Choi's House of Biryani	,Trece Martires,Cavite,"""An Indian and Middle Eastern eatery offering authentic biryani and grilled meats. Signature dish is Mutton Biryani cooked with aromatic spices""",Restaurant,"""Indian-Middle Eastern Cuisine, Halal, Biryani""",4.7,400,14.28204958,120.8507566,11:00AM - 9:00PM,0917 317 4667
137,Mikay's,General Trias,Cavite,"""A family style restaurant known for big servings, and home cooked favorites. Signature dishes include Grilled Liempo, and Seafood Paella""",Restaurant,"""Family-friendly, Recreational""",4.3,300,14.3771952,120.8840105,11:30AM - 9:30PM,0949 747 2589
138,Ilog Maria Honeybee Farm,Silang,Cavite,"""An eco friendly bee farm producing organic honey and wellness products offering educational tours on sustainable beekeeping practices.""",Farm,"""Ecofriendly, Educational, Nature""",4.6,300,14.19019268,120.9676936,8:00AM - 5:00PM Daily,ilogmaria.com
139,Acienda Designer Outlet,Silang,Cavite,"""The first true international outlet mall in the Philippines featuring over 100 fashion brands at discounted prices, set in a European inspired village setting.""",Leisure,"""Fashion, Shopping, Modern""",4.5,0,14.18372752,120.9605912,10:00AM - 9:00PM,aciendadesigneroutlet.com
140,Cornerstone Pottery Farm,Silang,Cavite,"""An artisan pottery studio offering hands on workshops amid scenic gardens providing pottery classes, and handcrafted ceramics.""",Leisure,"""Artisan, Pottery, Creative""",4.6,500,14.1951376,120.950149,8:00AM - 5:00PM Daily,cornerstonepotteryfarm.com
141,Cafe Agapita,Silang,Cavite,"

""A family run café with a chic two story house featuring glass windows offering a homey ambiance with alfresco dining surrounded by lush greenery.""",Cafe,"""Homey, Alfresco, Scenic""",4.5,300,14.23001128,120.974039,7:00AM -10:00PM,cafeagapita.com
142,Two Summers Cafe ,Silang,Cavite,"

""A cozy neighborhood café with a rustic beachfront ambiance offering espresso based drinks and delectable snacks in a warm and inviting setting.""",Cafe,"""Cozy, Rustic, Inviting""",4.7,300,14.22774157,120.9756684,9:00AM - 8:00PM,NaN
143,FILTR. Coffee,Silang,Cavite,"""A minimalist café offering great coffee and good ambiance popular among cyclists and those seeking a peaceful hideout down south.""",Cafe,"""Minimalist, Peaceful, Cyclist""",4.7,300,14.24950605,121.0481953,7:00AM - 8:00PM,filtrcoffee.pickup.ph
144,The Park,Silang,Cavite,"""A resort style property offering glamping tents multiple pools a full service spa and private plunge pool suites.""",Resort,"""Luxury, Glamping, Relaxing	""",4.5,4000,14.22239809,121.0312699,"
Check-in time: 2:00 PM
 Check-out time: 12:00 PM",theparksilang.com or 0917 800 5367
145,Shambala Silang,Silang,Cavite,"""A nature immersive dining space and art gallery built in indigenous style huts offering Filipino heritage flavors""",Restaurant,"""Upscale, Romantic, Scenic""",4.6,500,14.17014684,120.9820103,NaN,0927 594 0337
146,The Unknown,Silang,Cavite,"""A contemporary café, and bar hosting vibrant live music, and creative culinary offerings into the late hours.""",Cafe,"""Nightlife, Trendy""",4.9,700,14.15357893,120.9950971,10:00AM - 12:00AM Daily,theunknowncbr.com
147,Coffee Builders,Silang,Cavite,"""A modern coffee shop with an industrial loft ambiance offering specialty beverages and light meals in ample space""",Cafe,"""Modern, Comfortable, Accessible""",4.6,200,14.24207025,120.9970081,10:00AM - 10:00PM Daily,NaN
148,Third Bloom Cafe,Maragondon,Cavite,"""Cozy café offering handcrafted coffee, iced lattes, and a selection of pastries, and brunch meals perfect for study or casual hangouts.""",Cafe,"""Cozy""",5,200,14.325059,120.7732016,11:00AM - 9:00PM Daily,046 889 9181
149,Handaan Cavite,Maragondon,Cavite,"""Local eatery famous for authentic Filipino dishes such as kare-kare crispy pata and grilled seafood in a homey ambiance.	""",Restaurant,"""Filipino, Cuisine, Local""",4.7,400,14.32676183,120.7748726,11:00AM - 8:00PM,0994 890 4142
150,Little HQ Cafe,Indang,Cavite,"""Hidden gem known for brunch food signature hot chocolate and espresso blends served in a minimalist and quiet setting.""",Cafe,"""Brunch, Hidden, Gem""",4.7,200,14.22247359,120.8456934,11:00AM - 8:00PM,0919 818 6165
151,Riverfront Garden Resort,Maragondon ,Cavite,"""A nature-inspired resort offering riverside accommodations lush gardens and a tranquil ambiance.""",Resort,"""Nature, Relaxing, Chill""",4.3,2800,14.27616953,120.7285341,"""Check in time 2:00PM, Check out 12:00PM""",https://www.facebook.com/riverfrontgardenresort
152,Arvic Seaside Beach Resort,Naic,Cavite,"""Affordable seaside resort with beachfront access.""",Resort,"""Seaside, Budget, Casual""",4.1,2000,14.32198508,120.7536009,"""Check in time 2:00PM, Check out 12:00PM""",0956 912 5625
153,EMV Flower Farm,Indang,Cavite,"""A flower farm established since 2013 with 3.5 hectares of gorgeous blooms including more than 15 types of chrysanthemums""",Farm,"""Relaxing, Photoshoot, Flowers""",4.7,100,14.19996511,120.8559132,8:00AM - 5:00PM Daily,0977 729 0168
154,Pantihan Falls,Maragondon,Cavite,"""A scenic waterfall tucked in the forest, ideal for day hikes and picnics.""",Natural Attraction,"""Waterfall, Nature, Hiking, Spot	""",4,0,14.26080155,120.7833112,8:00AM - 7:00PM,NaN
155,Honorio's Restaurant,Maragondon,Cavite,"""Filipino boodle fights  grilled seafood  and home-style dishes with large nipa hut seating and riverbank views.""",Restaurant,"""Filipino, Family, Local""",4.5,300,14.27901422,120.7398735,8:00AM - 8:00PM,0997 754 5108
156,The Veranda by Chace & Cherrie,Maragondon,Cavite,"""Elegant restaurant serving modern Filipino and continental dishes on a verandah overlooking gardens. """,Restaurant,"""Modern, Filipino, """,4.6,400,14.27224067,120.740741,3:00PM - 10:00PM Daily,NaN
157,Mount Sea Resort,Rosario,Cavite,"""Seaside resort with grand hotel accommodations waterfront pool, and fine-dining restaurant""",Resort,"""Luxury, Beachfront""",4.1,3300,14.42376159,120.8630779,"""Check in time 2:00PM, Check out 12:00PM""",mountsearesorts.com
158,La Josephina Coffee & Pastries,Amadeo,Cavite,"""A rustic-themed cafe known for its cozy garden ambiance, ideal for casual dining and relaxing. It offers a peaceful escape surrounded by greenery.""",Cafe,"""Cozy, Serene, Hidden, Gem""",4.5,300,14.16177815,120.92678,8:00 AM - 9:00 PM,https://www.facebook.com/lajosephinacafe
159,Salakot Cafe,Silang,Cavite,"""Filipino-inspired café featuring traditional nipa huts wooden décor, and a scenic countryside view. Offers native dishes signature local brews and a relaxing nature-rich atmosphere.""",Cafe,"""Traditional, Scenic, Relaxing""",4.6,300,14.19314922,120.9631486,9:00 AM - 10:00 PM Daily,http://www.facebook.com/salakotcafe/
160,Cake's Coffee,Amadeo,Cavite,"""Quaint and charming cafe offering homemade cakes comfort food and locally sourced coffee.""",Cafe,"""Cozy, Homestyle, Sweet""",4.7,200,14.2066496,120.9339826,8:00 AM - 8:00 PM Daily,NaN
161,Cakes and Sprinkles,General Trias,Cavite,"""A vibrant dessert café known for its colorful pastries specialty cakes, and cheerful atmosphere perfect for casual hangouts""",Cafe,"""Minimalist, Calm, Dreamy""",4.1,300,14.29309589,120.9139928,11:00AM - 9:00PM,NaN
162,Ivo's Kitchen,General Trias,Cavite,"""Countryside-style cafe and restaurant in Silang offering Filipino comfort food with a modern twist set in a homey, garden-inspired space""",Restaurant,"""Homey, Flavorful, Relaxing""",4.7,200,14.29282903,120.9129384,10:30 AM - 8:00 PM,https://web.facebook.com/ivos.kitchen.gentri
163,Camp Benjamin,Alfonso,Cavite,"""Eco-adventure resort with a zipline, bubble slide, obstacle course, infinity pool and glamping tents """,Resort,"""Adventure, Luxury""",4.4,6000,14.15310513,120.8502028,"""Check in time 2:00PM, Check out 12:00PM""",0927 856 8779
164,Queens Strawberry Farm & Restaurant,Alfonso,Cavite,"""An agricultural tourism farm and restaurant with strawberry-infused menus like salads, desserts, and shakes. Amenities include koi poinds, fishing, and a walk through their strawberry farm.""",Farm,"""Strawberry, Farm-to-Table""",4.2,600,14.08791949,120.8669169,8:00 AM - 7:00PM,NaN
165,Kap'ean Coffee Shop,Alfonso,Cavite,"""A laid-back coffee spot in Amadeo serving locally grown brews and light snacks in a warm minimalist space with native touches and a welcoming vibe.""",Cafe,"""Local, Minimalist, Welcoming""",4.2,200,14.07960924,120.8452638,7:00 AM - 9:00 PM Daily,NaN
166,Siglo Brew,Tagaytay,Cavite,"""A café and craft beer bar within View Park Hotel, combining Filipino cultural design with modern aesthetics, serving single-origin Philippine coffees and local craft beers in indoor and al fresco settings by the poolside""",Cafe,"""Local, Hidden Gem, Al Fresco""",4.7,200,14.12622197,120.9966877,11:00 AM - 9:00PM Daily,NaN
167,Dahon at Mesa,Tagaytay,Cavite,"""A rustic garden café perched on Tagaytay Ridge, offering panoramic views of Tagaytay. Known for barako latte, and crispy tuyo, pandesal, breakfast combo""",Restaurant,"""Scenic, Rustic, Family-friendly""",4.6,600,14.10130324,120.946079,6:00 AM - 9:00 PM Daily,0917 190 8877
168,Rosario Pamanang Panlasa,Tagaytay,Cavite,"""A modern heritage Filipino restaurant offering heirloom dishes passed through generations such as Kare Kare Asado, Tortang Alimasag, Embutido and Beef Bulalo with panoramic view of Taal.""",Restaurant,"""Filipino, Scenic""",4.8,600,14.09692017,120.9428768,10:00 AM - 10:00 PM,0919 077 7396
169,Kuuma Kakao,Tagaytay,Cavite,"""Kuuma Kaakao is a humble homegrown cafe in Tagaytay that serves traditional hot chocolate and Filipino delicacies. It also has a scenic view of Tagaytay""",Cafe,"""Dessert, Hot Chocolate, Cozy, Al Fresco""",4.3,200,14.1146208,120.9615084,9:00 AM - 6:00PM,0917 965 5084
170,Hillcreek Gardens,Tagaytay,Cavite,"""Hillcreek Gardens is a botanical garden venue in Tagaytay. It offers landscaped flower beds, paved walking paths, and themed garden zones. On-site amenities include a café serving light snacks and an event pavilion for private functions.""",Hotel,"""Scenic, Garden, Photography, Family Friendly""",4.6,7000,14.09979358,120.8825769,Open 24 hours daily,hillcreekgardenstagaytay.com
171,Barista Loft,Tagaytay,Cavite,"""Barista Loft in Tagaytay is a specialty coffee shop in Kaybagal South, Tagaytay that offers visitors and aspiring baristas a laid-back ambiance.""",Cafe,"""Cozy, Specialty Coffee, Artistic Vibes, Brunch Spot""",4.4,300,14.10188668,120.9295569,10:00 AM - 10:00 PM,(046) 435 0897
172,Driftwoods Action Park,Indang,Cavite,"""It has ATV trails, mountain-bike circuits, and rallycross tracks. Overnight options include cabins and tent sites. On-site amenities include BBQ pits, bike rentals, campfire areas, and evening karaoke""",Leisure,"""Adventure, Family Friendly, Camping, Off-Road""",4.5,500,14.15761134,120.9034842,8:00 AM - 5:00 PM,(046) 413 4677
173,Kaffe Belardo,Amadeo,Cavite,"""It serves single-origin Robusta and Excelsa beans brewed as pour-over, drip, or cold brew. Light pastries are available. Outdoor garden seating overlooks nearby fields.""",Cafe,"""Roadside, Al Fresco, Specialty Beans, Biker Pitstop""",4.5,200,14.15879813,120.9266182,8:00AM - 8:00PM,NaN
174,Kojiro Ojisan Food House,Silang,Cavite,"""Kojiro Ojisan Food House is a casual Japanese eatery in Silang. Signature dishes include koroke (croquettes), nabe yaki ramen, tempura, and rice bowls. Seating is limited, with simple wooden tables and counter service.""",Restaurant,"""Comfort Food, Hidden Gem, Japanese, Casual Dining""",4.3,300,14.2225159,120.9746315,12:30 PM - 7:30PM ,
175,Jacobs Hill,Tagaytay,Cavite,"""Rooms include air conditioning and private balconies. Free breakfast and brewed coffee are served daily. The property offers volcano-view terraces and garden seating. It is a short drive from local attractions.""",Hotel,"""Scenic, Staycation, Volcano View, Guesthouse""",4.2,2200,14.12575933,120.9805331,"""Check in time 2:00PM, Check out 11:00PM""", 0917 632 6920
176,Korean Temple,Silang,Cavite,"""A modern Buddhist sanctuary. It features pagodas, meditation halls, and landscaped courtyards. Visitors can join guided meditation sessions. The architecture and gardens reflect traditional Joseon-era design.""",Religious Site,"""Cultural, Photogenic, Spiritual, Heritage""",4.4,0,14.1951656,120.9923741,NaN,NaN
177,Loufil Orchard Resort,Indang,Cavite,"""Loufil Orchard Resort is a resort in Indang set within a fruit orchard. Accommodation options include cottages and pool-room villas. Facilities include a swimming pool, BBQ areas, and open lawns. The resort is pet-friendly and offers parking on site.""",Resort,"""Resort, Orchard, Poolside, Pet Friendly""",4.2,300,14.2279907,120.8830862,Open 24 hours daily,0917 770 8711
178,Villa Ibarra,Tagaytay,Cavite,"""Sophisticated and refined, this haven lures visitors with its accommodations that feature a charming, rustic country aesthetic, complemented by a peaceful and captivating atmosphere. Every room offers a luxurious bed adorned with silk accents, and is outfitted with wooden flooring and furnishings. Additionally, a trip to the Bistro for a taste of authentic Filipino-Spanish dishes is a must.""",Hotel,"""Boutique, Scenic, Poolside, Romantic""",4.4,4500,14.101681,120.947705,"""Check in time 2:00PM, Check-out  time: 12:00PM""",0917 701 6461
179,Stellar Potter Ridge Hotel,Tagaytay,Cavite," ""A relaxing hotel in Tagaytay with a promise of bringing its guests closer to nature. As one of the best hotels in the city, Stellar Potter’s Ridge offers tranquility and serenity to families, friends, and solo travelers.""",Hotel,"""Contemporary, Hilltop, Rooftop, Business Friendly""",4.3,3000,14.08368494,120.8780266,"""Check in time 2:00PM, Check out time: 11:00 AM""",(046) 413 5808
180,Tita Boots Kitchen,Silang,Cavite,"""Tita Boots Kitchen is a homey Filipino diner in Silang. It’s known for classic bulalo, crispy pata, and homemade ube bibingka. The cheerful interiors and family-style tables make it ideal for group meals.""",Restaurant,""" Comfort Food, Family Friendly, Filipino, Hearty""",4.2,400,14.23868785,120.9735385,10:00 AM to 9:00 PM daily,(046) 414 0696
181,Country Chateau Hotel,Tagaytay,Cavite,"""Country Chateau Hotel is a French-inspired country lodge near Tagaytay. It offers cozy cottages, a fine-dining bistro, and landscaped courtyards. Additional perks include free breakfast, a playground, and pet-friendly rooms.""",Hotel,"""European, Charming, Family Friendly, Pet Friendly""",4.4,3000,14.10305495,120.9423601,"""Check in time 2:00PM, Check out time 11:00 AM""",(02) 8404 6212
182,Our Lady of Manaoag,Tagaytay,Cavite,"""Intimate Catholic chapel & shrine featuring a colossal statue of the Virgin Mary & a panoramic deck.""",Religious Site,"""Religious, Heritage, Pilgrimage, Cultural""",4.7,0,14.12695797,120.9988974,8:00 AM - 6:00 PM Daily,NaN
183,Don Bosco Chapel on the Hill,Tagaytay,Cavite,"""A small, intimate chapel that offers a wonderful option for couples who want to take advantage of Tagaytay’s mountainside view and natural wonders.""",Religious Site,"""Spiritual, Scenic, Minimalist, Tranquil""",4.7,0,14.05755832,120.836287,NaN,0917 524 7192
184,Mount Palay - Palay National Park,Ternate,Cavite,"""Mountain area known for the strikingly vertical Pico de Loro summit, with rugged trails & sea views.""",Natural Attraction,""" Hiking, Nature, Protected, Adventure""",4.7,500,14.22697896,120.651048,NaN,NaN
185,Palsahingin Falls,Indang,Cavite,"""A two-storey waterfall surrounded by stone walls, boulders, and moss. Its walls used to gush with many spring water suitable for drinking. """,Natural Attraction,"""Waterfall, Swimming, Adventure, Nature""",4.4,0,14.1982941,120.8882286,NaN,NaN
186,St. Anthony Falls,Indang,Cavite,"""Known for its clear, cascading waters and lush surroundings, making it a great spot for swimming, relaxing, or enjoying nature.""",Natural Attraction,"""Waterfall, Family Friendly, Picnic, Rustic""",4.3,50,14.1937757,120.8647056,NaN,NaN
187,Le Don's Garden,Silang,Cavite,"""a premier al fresco events destination and restaurant located in Cavite. Our venue offers guests a top-quality experience with a charming rustic-chic aesthetic that’s perfect for any occasion""",Restaurant,"""Al Fresco, Garden, Tapas, Romantic""",4.2,300,14.24653625,120.9752847,10:00 AM - 9:00 PM Daily,ledonsgarden.com
188,Kampo Trexo,Alfonso,Cavite,"""outdoor destination located in Alfonso, Cavite, offering a variety of activities for those seeking a break from city life. It's a popular spot for outdoor enthusiasts""",Leisure,"""Tea House, Minimalist, Japanese, Cozy""",4.7,500,14.10933883,120.8472832,NaN,NaN
189,Bonne Riviere Nature Farm Resort,Indang,Cavite,""" a private campsite, events place, and a river resort that caters to nature lovers from all walks of life.""",Resort,"""Eco-Resort, Farmstay, Organic, Family Friendly""",4.5,220,14.19501484,120.848968,NaN,0998 352 3936
190,Tagaytay Highlands Animal Farm,Tagaytay,Cavite,"""Tagaytay Highlands Animal Farm is a petting zoo within a leisure estate. Visitors meet alpacas, goats, and tropical birds along shaded pathways. The farm café serves ice creams and locally made cheese.""",Leisure,"""Family Friendly, Petting Zoo, Educational, Scenic""",4,1000,14.14874736,121.0391213,8:00 AM - 6:00 PM Daily,(046) 483 0848
191,Water Camp Resort,Kawit,Cavite,"""Water Camp Resort is a waterpark resort in Kawit. It features wave pools, water slides, and floating obstacle courses. The property includes a poolside grill, cabana rentals, and locker rooms.""",Resort,"""Waterpark, Family Friendly, Active, Resort""",4.3,300,14.4375672,120.8964304,Open 24 hours daily,watercampresort.com
192,Casa Verde Hotel and Events Center,Imus,Cavite,"""Casa Verde Hotel and Events Center is a boutique stay and venue in Imus. It offers well-appointed rooms, a ballroom for weddings, and on-site catering services. The landscaped courtyard hosts garden receptions.""",Hotel,"""Boutique, Events, Garden""",4.1,3000,14.4192275,120.9344937,"""Check in time 2:00PM, Check out 12:00PM""",casaverdeimus.com
193,Dragonfly Apartments and Transient House,Bacoor,Cavite,"""Dragonfly Apartments and Transient House is a budget lodging in Bacoor. It provides self-contained studios with kitchenettes and laundry facilities. Free parking and fast Wi-Fi cater to long-stay guests.""",Hotel,"""Budget, Accommodation""",4.3,1300,14.436997,120.950846,"""Check in time 2:00PM, Check out time 10:00 AM""",0947 565 4076
194,Villa Theresa,Cavite City,Cavite,"""Villa Theresa is a private villa rental in Cavite City. It features four bedrooms, a fully-equipped kitchen, and a wraparound terrace. Amenities include a private pool, BBQ grill, and panoramic sunset views.""",Resort,"""Private, Poolside, Family Friendly, Romantic""",4.3,10000,14.4725831,120.894653,Open 24 hours daily,046 431 8120
195,Jardin De Dasmarinas,Dasmarinas,Cavite,"""Ffeaturing an Olympic-size main pool, two kiddie pools with slides, and private plunge pools available for exclusive rental",Resort,"""Resort, Family Friendly, Swimming Pools, Celebration Venue""",4.3,300,14.3447744,120.9252632,Open 24 hours daily,046 416 1056
196,Kalipayan Resort,Dasmarinas,Cavite,"""Kalipayan Resort is a hot springs and leisure resort in Cavite. It offers hot and cold plunge pools, aqua massage beds, and poolside cottages. The on-site restaurant serves Filipino-Chinese fusion dishes.""",Resort,"""Resort, Family Friendly, Swimming Pools, Celebration Venue""",4.2,300,14.34218089,120.9377847,Open 24 hours daily,046 416 187
197,Cafe Antix,Kawit,Cavite,"""The interior of the restaurant boasts a diverse collection of antiques - from the old television set, cash register, an array of old soda bottles, electric fans and other vintage knick-knacks, it's almost like stepping into a cozy museum.""",Cafe,"""Specialty Coffee, Music, Creative""",4.5,400,14.4777312,120.8931349,11:00 AM - 7:00PM Daily,046 431 6196
198,Subi Monte Cafe ,Kawit,Cavite,"""Serves specialty coffees, unli cake-and-coffee deals, plus hearty mains like the Subi-Monte Mountain Burger, pastas, and rice meals""",Cafe,"""Hiking-themed cafe""",4,200,14.4778312,120.8934263,9:00 AM - 11:00PM Daily,046 402 3759
199,Cafe 506,Kawit,Cavite,"""Cafe 506 is a cozy and affordable dining spot located along EPZA Diversion Road in Kawit, Cavite. Known for its generous portions and flavorful dishes, the café offers a diverse menu that blends Filipino comfort food with international favorites. Signature offerings include Arroz Negra, Kimcheese Rice, Pritchong Kare-Kare, and the 506 Burger.""",Cafe,"""Cozy, Affordable, Family-Friendly""",4.4,300,14.4263967,120.8898008,10:00 AM - 9:00 PM Daily,046 443 7581
200,St. Francis of Assisi Parish Church,General Trias,Cavite,"""Saint Francis of Assisi Parish Church is the first Roman Catholic parish of General Trias, built in the 18th century with distinctive Earthquake Baroque architecture and an attached convent where the Philippine national anthem was first rehearsed""",Religious Site,"""Historical, Baroque Architecture, Religious Site, Cultural Heritage, Family-Friendly""",4.7,0,14.3854985,120.8800089,NaN,NaN
201,Villa Colmenar Natural Spring Resort,Indang,Cavite,"""Villa Colmenar in Indang is a Santorini-inspired resort famed for its five crystal-clear pools fed by natural spring water and its white-and-blue Mediterranean theme """,Resort,"""Santorini-Inspired, Natural Spring, Resort, Mediterranean Style, Family-Friendly""",4.3,170,14.1712515,120.8590459,12:00 AM - 12:00PM Daily,0906 424 4079
202,Nuzen Art Gallery,Tagaytay,Cavite,"""Nuzen Art Gallery in Tagaytay showcases contemporary visual and multimedia art exhibitions within indoor spaces set against the city’s scenic highland backdrop""",Museum,"""Art Gallery, Contemporary Art, Cultural Experience, Scenic Views, Exhibitions""",4.5,0,14.0976694,120.9205739,11:00 AM - 8:00PM,NaN
203,Coffee & Dreams,Tagaytay,Cavite,"""Coffee & Dreams is a cozy, instagrammable café in Tagaytay offering artisanal coffee, pastries, and an in-house perfume and candle boutique amid lush greenery""",Cafe,"""Cozy, IG-Worthy, Artisanal Coffee, Café Retail, Unique Ambience""",4.5,250,14.11987256,120.9608232,NaN,NaN
204,Cocovalley Richnez Waterpark,Dasmarinas,Cavite,"""Coco Valley Richnez Waterpark in Dasmariñas features five swimming pools, slides, picnic areas, and life-jackets for a safe, family-friendly outing""",Resort,"""Waterpark, Family-Friendly, Pools, Slides, Day Trip""",4,200,14.31673473,120.9853455,6:00AM - 4:00AM Daily,0921 936 0908
205,JDG Lomi House,Tagaytay,Cavite,"""JDG Lomi House in Tagaytay serves hearty Filipino lomi noodle soup in a casual, budget-friendly setting with mountain views""",Restaurant,"""Filipino Noodles, Comfort Food, Casual Dining, Budget-Friendly, Scenic Views""",4.8,200,14.13918368,120.9881167,7:00 AM - 8:00 PM Daily,0967 273 1670
206,Filomena Springs Nature Resort & Farm,Amadeo,Cavite,"""Filomena Springs in Cavite City offers a natural stone-lined spring pool, shallow kiddie areas, picnic huts, and on-site farm animals for an eco-retreat""",Resort,"""Eco-Tourism, Natural Spring, Farm Experience, Nature Retreat, Picnic""",4.1,300,14.18973332,120.8684367,Open 24 hours daily,0939 113 6257
207,Hidden Tapsihan,Kawit,Cavite,"""Tapsihan in Kawit known for its tender, garlicky beef tapa served with rice and eggs.""",Restaurant,"""Tapsilog, Filipino Comfort Food, Budget-Friendly, Hidden Gem, Casual Dining""",4.5,0,14.44340868,120.9007045,Open 24 hours daily,046 484 7003
208,Ayala Malls Serin,Tagaytay,Cavite,"""A mid-sized lifestyle mall in Tagaytay combining open-air walkways, rustic-chic architecture, and a curated mix of local and international shops and eateries.""",Leisure,"""Lifestyle Mall, Open-Air, Retail Therapy, Dining Options, Family-Friendly""",4.4,0,14.11269829,120.9591738,10:00 AM - 10:00 PM,(046) 544 0279
209,Caynipa Cove,Ternate,Cavite,"""A secluded beach cove in Ternate featuring near-white sand, calm waters ideal for swimming, and basic camping facilities. """,Beach,"""Beach Getaway, Swimming, Camping, Secluded, Day Trip""",4.4,0,14.26758379,120.6365729,NaN,NaN
210,Paniman Beach Resort,Ternate,Cavite,"""A public beach within the Puerto Azul complex offering free entry, payable cottages, and pristine shorelines perfect for picnic-style day tours""",Beach,"""Public Beach, Cottages, Picnic Area, Waterfront, Day Tour""",4,1000,14.27987514,120.6666294,NaN,0945 338 4863
211,Dagisdis ng Maragondon,Maragondon,Cavite,"""A nature-adventure resort in Maragondon with air-conditioned cabins, infinity pools overlooking Mt. Marami, and Instagram-worthy viewing decks""",Leisure,"""Nature Resort, Adventure Activities, Scenic Views, Eco-Tourism""",4.3,150,14.22379855,120.7617492,NaN,0930 922 3992
212,Original Digman Halo-halo,Bacoor,Cavite,"""A popular roadside stall in Bacoor serving traditional halo-halo with generous layers of sweet beans, fruits, and shaved ice""",Restaurant,"""Desserts, Halo-halo, Street Food, Refreshing, Filipino Sweet Treats""",4,100,14.4608978,120.9427971,8:00AM - 9:00PM,NaN
213,7twenty7 American Dinner,Tagaytay,Cavite,"""A retro-themed restaurant offering a blend of American diner classics and Filipino favorites. It aims to provide a nostalgic, cozy, and affordable dining experience reminiscent of the 1950s and 60s.""",Restaurant,"""American Cuisine, Diner, Burgers, Milkshakes, Casual Dining""",4.1,500,14.09955288,120.9221889,10:00AM - 10:00PM Daily,727americandiner.com
214,Fields at Bayleaf Cavite,General Trias,Cavite,"""Fields is the signature all-day dining restaurant on the 8th floor of The Bayleaf Cavite hotel in General Trias, serving international and locally-sourced dishes in a cozy indoor setting with panoramic city""",Restaurant,"""International Cuisine, Locally-Sourced, Indoor, City Views, Cozy Ambience""",4.7,800,14.28991713,120.9167454,12:00PM - 10:00PM Daily,(046) 435 5000
215,Anya Resort Tagaytay,Tagaytay,Cavite,"""A luxury garden resort in Tagaytay offering private villas, and Mediterranean-inspired architecture set within lush landscapes""",Resort,"""Luxury resort, Romantic Getaway""",4.4,12000,14.13664648,120.9702076,"""Check in time : 3:00PM, Check out time: 12:00PM""",0917 704 6159
216,La Traviesa Hotel & Resort,General Trias,Cavite,"""A boutique resort in Indang featuring modern rooms, a lagoon-style pool, and panoramic views of the surrounding caviteño countryside.""",Resort,"""Boutique Resort, Lagoon Pool, Countryside Views, Modern Rooms, Relaxing, Family-friendly""",4.3,4000,14.31017486,120.8979926,"""Check in time 2:00PM, Check-out  time: 12:00PM""",latraviesaresort.com.ph
217,Ume-ya,Bacoor,Cavite,"""Ume-ya Jozam is a cozy Japanese restaurant located in Bacoor, Cavite, offering a diverse menu that includes sushi, ramen, rice bowls, and bento sets at affordable prices. The restaurant features a minimalist Japanese-inspired interior, providing a serene dining atmosphere.""",Restaurant,"""Japanese Cuisine, Sushi, Ramen, Affordable Dining, Cozy Ambience, Bacoor""",4.4,500,14.42502113,120.9652537,11:00AM - 10:00PM,0920 983 0318
218,Pamahaw,Tagaytay,Cavite,"""Offers a diverse menu that includes breakfast, lunch, and dinner options. Serves a variety of dishes throughout the day, such as seafood, pasta, and traditional Filipino favorites.""",Restaurant,"""Filipino Cuisine, All-Day Dining, Family-Friendly, Casual Dining, Silang""",4.6,800,14.15366583,120.9945332,9:00 AM - 9:00 PM Daily,0917 717 8877
